*******************************************************************************
JPL/HORIZONS               451 Patientia (A899 XA)         2023-Sep-04 11:06:25
Rec #:     451 (+COV) Soln.date: 2023-Aug-23_19:10:27   # obs: 3857 (1899-2023)
 
IAU76/J2000 helio. ecliptic osc. elements (au, days, deg., period=Julian yrs):
 
  EPOCH=  2457446.5 ! 2016-Feb-28.00 (TDB)         Residual RMS= .31173
   EC= .07561935263501295  QR= 2.829869074456949   TP= 2458039.3851252231
   OM= 89.25661234396321   W=  337.1162854841281   IN= 15.23729505733319
   A= 3.061367719590077    MA= 250.9058706372251   ADIST= 3.292866364723204
   PER= 5.3565             N= .184005509           ANGMOM= .030011929
   DAN= 2.84561            DDN= 3.2718             L= 67.0983159
   B= -5.8658518           MOID= 1.85056996        TP= 2017-Oct-12.8851252231
 
Asteroid physical parameters (km, seconds, rotational period in hours):
   GM= n.a.                RAD= 126.95             ROTPER= 9.727
   H= 6.85                 G= .190                 B-V= .666
                           ALBEDO= .085            STYP= CU

ASTEROID comments: 
1: soln ref.= JPL#134, OCC=0
2: source=ORB
*******************************************************************************


*******************************************************************************
Ephemeris / API_USER Mon Sep  4 11:06:25 2023 Pasadena, USA      / Horizons
*******************************************************************************
Target body name: 451 Patientia (A899 XA)         {source: JPL#134}
Center body name: Solar System Barycenter (0)     {source: DE441}
Center-site name: BODY CENTER
*******************************************************************************
Start time      : A.D. 2023-Aug-12 00:00:00.0000 TDB
Stop  time      : A.D. 2023-Aug-13 00:00:00.0000 TDB
Step-size       : 2880 minutes
*******************************************************************************
Center geodetic : 0.0, 0.0, 0.0                   {E-lon(deg),Lat(deg),Alt(km)}
Center cylindric: 0.0, 0.0, 0.0                   {E-lon(deg),Dxy(km),Dz(km)}
Center radii    : (undefined)
Small perturbers: Yes                             {source: SB441-N16}
Output units    : KM-S
Calendar mode   : Mixed Julian/Gregorian
Output type     : GEOMETRIC cartesian states
Output format   : 2 (position and velocity)
Reference frame : Ecliptic of J2000.0
*******************************************************************************
Initial IAU76/J2000 heliocentric ecliptic osculating elements (au, days, deg.):
  EPOCH=  2457446.5 ! 2016-Feb-28.00 (TDB)         Residual RMS= .31173        
   EC= .07561935263501295  QR= 2.829869074456949   TP= 2458039.3851252231      
   OM= 89.25661234396321   W=  337.1162854841281   IN= 15.23729505733319       
  Equivalent ICRF heliocentric cartesian coordinates (au, au/d):
   X= 1.927720660022995E+00  Y=-2.022868136533762E+00  Z=-1.458681326493610E+00
  VX= 6.699206759243442E-03 VY= 6.730797861996360E-03 VZ= 9.546344391463456E-04
Asteroid physical parameters (km, seconds, rotational period in hours):        
   GM= n.a.                RAD= 126.95             ROTPER= 9.727               
   H= 6.85                 G= .190                 B-V= .666                   
                           ALBEDO= .085            STYP= CU                    
*******************************************************************************
JDTDB
   X     Y     Z
   VX    VY    VZ
*******************************************************************************
$$SOE
2460168.500000000 = A.D. 2023-Aug-12 00:00:00.0000 TDB 
 X =-8.981290702753256E+07 Y = 4.212974041488552E+08 Z = 2.609015187617767E+07
 VX=-1.713451820841178E+01 VY=-3.169137024741024E+00 VZ= 4.643565465671361E+00
$$EOE
*******************************************************************************
 
TIME

  Barycentric Dynamical Time ("TDB" or T_eph) output was requested. This
continuous coordinate time is equivalent to the relativistic proper time
of a clock at rest in a reference frame co-moving with the solar system
barycenter but outside the system's gravity well. It is the independent
variable in the solar system relativistic equations of motion.

  TDB runs at a uniform rate of one SI second per second and is independent
of irregularities in Earth's rotation.
 
CALENDAR SYSTEM

  Mixed calendar mode was active such that calendar dates after AD 1582-Oct-15
(if any) are in the modern Gregorian system. Dates prior to 1582-Oct-5 (if any)
are in the Julian calendar system, which is automatically extended for dates
prior to its adoption on 45-Jan-1 BC.  The Julian calendar is useful for
matching historical dates. The Gregorian calendar more accurately corresponds
to the Earth's orbital motion and seasons. A "Gregorian-only" calendar mode is
available if such physical events are the primary interest.

REFERENCE FRAME AND COORDINATES

  Ecliptic at the standard reference epoch

    Reference epoch: J2000.0
    X-Y plane: adopted Earth orbital plane at the reference epoch
               Note: IAU76 obliquity of 84381.448 arcseconds wrt ICRF X-Y plane
    X-axis   : ICRF
    Z-axis   : perpendicular to the X-Y plane in the directional (+ or -) sense
               of Earth's north pole at the reference epoch.

  Symbol meaning:

    JDTDB    Julian Day Number, Barycentric Dynamical Time
      X      X-component of position vector (km)
      Y      Y-component of position vector (km)
      Z      Z-component of position vector (km)
      VX     X-component of velocity vector (km/sec)                           
      VY     Y-component of velocity vector (km/sec)                           
      VZ     Z-component of velocity vector (km/sec)                           

ABERRATIONS AND CORRECTIONS

 Geometric state vectors have NO corrections or aberrations applied.

Computations by ...

    Solar System Dynamics Group, Horizons On-Line Ephemeris System
    4800 Oak Grove Drive, Jet Propulsion Laboratory
    Pasadena, CA  91109   USA

    General site: https://ssd.jpl.nasa.gov/
    Mailing list: https://ssd.jpl.nasa.gov/email_list.html
    System news : https://ssd.jpl.nasa.gov/horizons/news.html
    User Guide  : https://ssd.jpl.nasa.gov/horizons/manual.html
    Connect     : browser        https://ssd.jpl.nasa.gov/horizons/app.html#/x
                  API            https://ssd-api.jpl.nasa.gov/doc/horizons.html
                  command-line   telnet ssd.jpl.nasa.gov 6775
                  e-mail/batch   https://ssd.jpl.nasa.gov/ftp/ssd/hrzn_batch.txt
                  scripts        https://ssd.jpl.nasa.gov/ftp/ssd/SCRIPTS
    Author      : Jon.D.Giorgini@jpl.nasa.gov
*******************************************************************************
